{"fetched_at":"2026-04-11T05:26:22Z","count":2456,"tles":[{"name":"OPTUS 10","line1":"1 40146U 14054A   26100.45322483 -.00000146  00000+0  00000+0 0  9999","line2":"2 40146   0.1103 338.8820 0001983  43.8610 135.1042  1.00271161 42356","category":"Other"},{"name":"STARLINK-30254","line1":"1 57533U 23115N   26100.22958265  .00001645  00000+0  69291-4 0  9999","line2":"2 57533  43.0026 285.0397 0000746 257.4982 102.5786 15.27575420150180","category":"Starlink"},{"name":"GPS BIIF-7  (PRN 09)","line1":"1 40105U 14045A   26100.24414359  .00000046  00000+0  00000+0 0  9993","line2":"2 40105  55.3085  91.1700 0031438 119.6449 240.6813  2.00554015 84715","category":"GPS"},{"name":"GSAT0101 (GALILEO-PFM)","line1":"1 37846U 11060A   26097.45828163 -.00000085  00000+0  00000+0 0  9999","line2":"2 37846  57.0161 343.6814 0004080  19.6849 340.3770  1.70475899 89919","category":"GPS"},{"name":"FOSSASAT-2E11","line1":"1 52750U 22057U   23250.29683637  .10675731  26081-5  21906-2 0  9993","line2":"2 52750  97.5287  17.3695 0019161 306.5819  53.3711 16.30626274 71825","category":"Other"},{"name":"STARLINK-2168","line1":"1 47751U 21017AF  23361.82026705  .00004304  00000+0  30741-3 0  9998","line2":"2 47751  53.0544 195.8420 0001643  94.1206 265.9971 15.06430006157009","category":"Starlink"},{"name":"GSAT0102 (GALILEO-FM2)","line1":"1 37847U 11060B   26096.49628140 -.00000089  00000+0  00000+0 0  9990","line2":"2 37847  57.0174 343.7079 0004891 357.9545 177.2654  1.70476073 89901","category":"GPS"},{"name":"STERNULA-1","line1":"1 55044U 23001AM  23362.41979637  .00019904  00000+0  84909-3 0  9991","line2":"2 55044  97.4562  59.9337 0011870  62.3341 297.9099 15.22890455 54550","category":"Other"},{"name":"GSAT0203 (GALILEO 7)","line1":"1 40544U 15017A   26098.99607967 -.00000080  00000+0  00000+0 0  9996","line2":"2 40544  56.8079 343.4837 0002526 327.5830  32.4473  1.70476014 68028","category":"GPS"},{"name":"STARLINK-31339","line1":"1 58981U 24031S   26099.86343949  .00001269  00000+0  54984-4 0  9994","line2":"2 58981  53.1603 152.0604 0001401  88.1688 271.9473 15.30194723121286","category":"Starlink"},{"name":"HIMAWARI-8","line1":"1 40267U 14060A   26100.47902698 -.00000274  00000+0  00000+0 0  9996","line2":"2 40267   0.0247 101.8968 0000947 267.4939 142.4398  1.00271710 42081","category":"Other"},{"name":"ASTROCAST 0.1","line1":"1 43798U 18099AS  26100.16312723  .00031671  00000+0  66350-3 0  9992","line2":"2 43798  97.4402 176.7626 0006381 110.9300 249.2632 15.45348485403918","category":"Other"},{"name":"FOX-1D (AO-92)","line1":"1 43137U 18004AC  24033.82494968  .13075370  24468-5  25682-3 0  9994","line2":"2 43137  97.2729 126.2745 0011105 309.1902  50.8414 16.46500565338346","category":"Other"},{"name":"ORBCOMM FM109","line1":"1 40086U 14040A   26100.22540179  .00000576  00000+0  15843-3 0  9997","line2":"2 40086  47.0039  52.7844 0002434 277.6363  82.4246 14.58773400624423","category":"Other"},{"name":"STARLINK-30091","line1":"1 57463U 23107G   26100.22877348  .00001789  00000+0  74533-4 0  9998","line2":"2 57463  43.0040 157.7235 0001303 267.3153  92.7549 15.27578287149970","category":"Starlink"},{"name":"COSMOS 2428","line1":"1 31792U 07029A   26100.46324661 -.00000097  00000+0 -26330-4 0  9996","line2":"2 31792  70.9410 136.6557 0009637 243.6889 116.3243 14.12948775968587","category":"Other"},{"name":"IRNSS-1C","line1":"1 40269U 14061A   26100.46017144 -.00000157  00000+0  00000+0 0  9991","line2":"2 40269   6.3449  90.2236 0021038 356.6256   0.5547  1.00272204 42003","category":"Other"},{"name":"STARLINK-31725","line1":"1 59538U 24074E   26100.25001157  .00134176  00000+0  65877-3 0  9994","line2":"2 59538  42.9866 135.9584 0019597  86.1888 310.8731 15.80768284  1757","category":"Starlink"},{"name":"COSMOS 2515","line1":"1 41394U 16020A   26100.49706088  .00002031  00000+0  13670-3 0  9996","line2":"2 41394  97.9812 113.4237 0023640 167.9311 192.2487 15.07742181550215","category":"Other"},{"name":"YAM-3","line1":"1 48915U 21059AN  26100.44292183  .00012560  00000+0  24981-3 0  9996","line2":"2 48915  97.7000 283.0505 0004363 229.6443 130.4426 15.47090894266518","category":"Other"},{"name":"GPS BIII-1  (PRN 04)","line1":"1 43873U 18109A   26099.44352620  .00000043  00000+0  00000+0 0  9991","line2":"2 43873  55.6394  94.8972 0038058 198.9205 329.3072  2.00558631 53695","category":"GPS"},{"name":"GPS BIIF-11 (PRN 10)","line1":"1 41019U 15062A   26099.97219701 -.00000064  00000+0  00000+0 0  9990","line2":"2 41019  56.9167  33.4396 0111248 231.5741 127.4254  2.00567144 76466","category":"GPS"},{"name":"METEOR 2-1 DEB","line1":"1 57492U 75064F   26100.17589507  .00005833  00000+0  23077-2 0  9999","line2":"2 57492  81.2737  67.3172 0005313 299.8295  60.2358 14.28846084393272","category":"Weather"},{"name":"COSMOS 2501 (702K)","line1":"1 40315U 14075A   26099.78884244 -.00000003  00000+0  00000+0 0  9993","line2":"2 40315  63.6148 192.7387 0021541 208.8373 151.0786  2.13101607 88391","category":"Other"},{"name":"HAWK-C","line1":"1 43799U 18099AT  26100.39512181  .00008918  00000+0  33007-3 0  9999","line2":"2 43799  97.3963 154.1238 0042146 163.3564 196.9070 15.27056124403563","category":"Other"},{"name":"DONGPO 09","line1":"1 54685U 22167D   26100.31340257  .00011915  00000+0  35449-3 0  9994","line2":"2 54685  97.6850 268.3907 0002606  33.2256 326.9150 15.34886892185032","category":"Other"},{"name":"LINGQIAO VIDEO B","line1":"1 40960U 15057C   26100.54490979  .00000565  00000+0  86030-4 0  9999","line2":"2 40960  97.6595  99.8751 0018067 126.0647 234.2241 14.77399090565462","category":"Other"},{"name":"2018-102D","line1":"1 43834U 18102D   26100.28988322  .00055449  00000+0  69698-3 0  9992","line2":"2 43834  97.3443 186.7922 0003472 306.3247  53.7689 15.59510292406647","category":"Other"},{"name":"DONGPO 08","line1":"1 54686U 22167E   26100.30945424  .00010686  00000+0  34392-3 0  9991","line2":"2 54686  97.6807 265.8783 0009190  54.4609 305.7488 15.32378995184925","category":"Other"},{"name":"HAWK-8A","line1":"1 59443U 24066B   26099.86719053  .00001597  00000+0  14897-3 0  9991","line2":"2 59443  45.5948 269.7902 0002313  40.3135 319.7917 14.98906348109584","category":"Other"},{"name":"COSMOS 2436 (723)","line1":"1 32395U 07065C   26099.88284838 -.00000003  00000+0  00000+0 0  9997","line2":"2 32395  64.3248 194.2895 0017223   2.3366  27.7640  2.13100460142273","category":"Other"},{"name":"ONEWEB-0010","line1":"1 44058U 19010B   26100.33722830  .00000036  00000+0  61216-4 0  9997","line2":"2 44058  87.9055 242.2612 0002017  91.2495 268.8867 13.16593507342684","category":"Other"},{"name":"LEMUR-2-SPACEGUS","line1":"1 56187U 23054K   23361.68412594  .00035016  00000+0  11187-2 0  9999","line2":"2 56187  97.3787 254.6742 0009238  58.4828 301.7315 15.32338188 39719","category":"Other"},{"name":"LEMUR-2-ROMEO-N-LEO","line1":"1 56206U 23054AE  23362.26012610  .00074867  00000+0  13789-2 0  9998","line2":"2 56206  97.3705 257.5910 0009466  41.7914 318.4058 15.48856577 39964","category":"Other"},{"name":"RUNNER-1 (TYVAK-1005)","line1":"1 56953U 23084X   26099.97112394  .00010402  00000+0  29487-3 0  9996","line2":"2 56953  97.6128 239.5949 0008050 189.3539 170.7556 15.36417674157126","category":"Other"},{"name":"STARLINK-1272","line1":"1 45386U 20019AC  26100.01276391  .00106135  00000+0  11533-2 0  9996","line2":"2 45386  53.0431 317.3731 0004638 230.8814 129.1788 15.62666864335418","category":"Starlink"},{"name":"COSMOS 2457 (733)","line1":"1 36112U 09070B   26099.88639517  .00000037  00000+0  00000+0 0  9990","line2":"2 36112  64.9582  73.1454 0001451 189.4272 356.5924  2.13101225126973","category":"Other"},{"name":"COSMOS 2500 (755)","line1":"1 40001U 14032A   26099.99699562 -.00000015  00000+0  00000+0 0  9991","line2":"2 40001  65.2719 316.0073 0005275 186.7077 173.3313  2.13106191 92008","category":"Other"},{"name":"COSMOS 2475 (743)","line1":"1 37869U 11064C   26096.70618366  .00000014  00000+0  00000+0 0  9998","line2":"2 37869  65.2440  75.3825 0027829 255.3172 287.2222  2.13101770112246","category":"Other"},{"name":"COSMOS 2460 (732)","line1":"1 36402U 10007C   26099.87856904 -.00000016  00000+0  00000+0 0  9992","line2":"2 36402  65.4592 316.7789 0002231  53.0097 128.3489  2.13106396125274","category":"Other"},{"name":"FLOCK 4S-9","line1":"1 47478U 21006BT  23361.74354489  .00025783  00000+0  70399-3 0  9993","line2":"2 47478  97.3597  59.4089 0005756 114.3364 245.8483 15.37382996162367","category":"Other"},{"name":"STRATOSAT-TK 1 (RS52S)","line1":"1 57167U 23091B   26010.59363612  .08733485  25619-5  12458-2 0  9993","line2":"2 57167  97.4978  91.1570 0009532 282.8011  77.2220 16.34765267141469","category":"Other"},{"name":"STARLINK-11167 [DTC]","line1":"1 60061U 24113C   26100.54143624 -.00001071  00000+0 -39867-5 0  9990","line2":"2 60061  53.1589  34.2138 0001024  78.1798 281.9335 15.69709315104860","category":"Starlink"},{"name":"COSMOS 2492 (754)","line1":"1 39620U 14012A   26098.88784377 -.00000023  00000+0  00000+0 0  9999","line2":"2 39620  65.3370 316.2922 0012188 330.4734  29.5029  2.13103482 93761","category":"Other"},{"name":"COSMOS 2477 (745)","line1":"1 37868U 11064B   26096.40634785  .00000011  00000+0  00000+0 0  9994","line2":"2 37868  65.2371  75.3717 0021870 243.9238 113.1674  2.13102916112223","category":"Other"},{"name":"COSMOS 2529 (757)","line1":"1 43687U 18086A   26099.20008970 -.00000001  00000+0  00000+0 0  9993","line2":"2 43687  64.2933 194.9221 0009586 254.2811 105.6456  2.13102129 57815","category":"Other"},{"name":"COSMOS 2557 (706K)","line1":"1 52984U 22075A   26098.18923715 -.00000032  00000+0  00000+0 0  9999","line2":"2 52984  64.3386 316.9523 0010596 283.5355  76.3908  2.13102094 29221","category":"Other"},{"name":"COSMOS 2534 (758)","line1":"1 44299U 19030A   26093.82359164  .00000016  00000+0  00000+0 0  9994","line2":"2 44299  64.3670 195.1188 0010993 277.9111  51.8442  2.13102494 53333","category":"Other"}]}